KUZGTU 1 (RS47S)        
1 57217U 23091AV  26179.61035321  .00011454  00000+0  39471-3 0  9994
2 57217  97.5065 244.2077 0011734  62.3583 297.8847 15.30116753166128
SONATE-2                
1 59112U 24043Q   26179.37009839  .00038011  00000+0  47805-3 0  9994
2 59112  97.5533 330.4588 0007258 159.2344 200.9208 15.59552701129635
MESAT1                  
1 60209U 24125G   26179.56051020  .00054405  00000+0  56370-3 0  9996
2 60209  97.2273  37.3111 0010685 164.5747 195.5841 15.64461641111340
OOV-CUBE (TUBSAT-30)    
1 60240U 24128F   26179.36696796  .00001714  00000+0  14069-3 0  9991
2 60240  61.9924 186.5879 0043237 136.2488 224.2043 15.02811881107796
COLIBRI-S (RS67S)       
1 61746U 24199M   26179.63319043  .00021288  00000+0  40558-3 0  9998
2 61746  97.2978  53.5947 0006823 224.1656 135.9051 15.48188861139182
HORS 3 (RS81S)          
1 61753U 24199U   26179.60586650  .00034883  00000+0  50587-3 0  9991
2 61753  97.2966  55.6794 0004729 215.6669 144.4270 15.55759600139330
HORS 4 (RS82S)          
1 61754U 24199V   26179.59520475  .00047710  00000+0  57271-3 0  9993
2 61754  97.2909  56.9457 0004689 200.5824 159.5245 15.60750638139426
SIT-2086                
1 61764U 24199AF  26179.59798606  .00035117  00000+0  54541-3 0  9992
2 61764  97.2923  56.1084 0006028 199.2994 160.8033 15.53867401136204
HYPERVIEW 1G (RS66S)    
1 61772U 24199AP  26179.60865678  .00158488  00000+0  87462-3 0  9992
2 61772  97.2850  59.9302 0006505 183.5272 176.5951 15.79182252136475
ALTAIR (RS65S)          
1 61779U 24199AW  26179.63456403  .00010678  00000+0  29437-3 0  9990
2 61779  97.3019  48.9110 0010776 263.1455  96.8564 15.37238958138877
ASRTU-1 (AO-123)        
1 61781U 24199AY  26179.56748822  .00007380  00000+0  21352-3 0  9998
2 61781  97.2990  48.1363 0011900 267.0979  92.8903 15.35833405135677
SAMSAT-IONOSPHERE (RS7*)
1 61784U 24199BB  26179.61968960  .00045220  00000+0  58814-3 0  9992
2 61784  97.2931  55.7830 0006880 220.2642 139.8106 15.58626936139346
RTU MIREA 1 (RS51S)     
1 61785U 24199BC  26179.61792844  .00056512  00000+0  63674-3 0  9995
2 61785  97.2918  56.6734 0006968 212.1802 147.9032 15.62346488136251
TEVEL2-4                
1 63213U 25052D   26178.67912166  .00018314  00000+0  54142-3 0  9996
2 63213  97.3898  75.0900 0004816  83.9278 276.2514 15.34970355 71724
TEVEL2-5                
1 63214U 25052E   26178.96160683  .00017894  00000+0  53188-3 0  9999
2 63214  97.3898  75.3176 0004767  85.2534 274.9254 15.34803473 71764
TEVEL2-6                
1 63215U 25052F   26179.62616375  .00017540  00000+0  52165-3 0  9990
2 63215  97.3900  75.9681 0004605  84.5630 275.6138 15.34791487 71867
TEVEL2-1                
1 63217U 25052H   26179.20266852  .00017191  00000+0  52051-3 0  9993
2 63217  97.3869  75.1550 0005001  92.4955 267.6861 15.34227213 71785
TEVEL2-3                
1 63218U 25052J   26179.52299733  .00017203  00000+0  51972-3 0  9998
2 63218  97.3875  75.4987 0004860  93.1109 267.0690 15.34297653 71836
TEVEL2-2                
1 63219U 25052K   26179.20291435  .00017431  00000+0  52755-3 0  9998
2 63219  97.3872  75.1580 0005014  92.9616 267.2201 15.34238334 71787
OTP-2                   
1 63235U 25052AB  26179.52005704  .00008119  00000+0  33646-3 0  9994
2 63235  97.3864  71.7811 0008119 115.9048 244.3027 15.24129056 71599
TEVEL2-9                
1 63237U 25052AD  26179.65180651  .00015749  00000+0  50741-3 0  9997
2 63237  97.3933  74.9572 0008303 100.5589 259.6589 15.32242983 71789
TEVEL2-7                
1 63238U 25052AE  26179.17239308  .00015518  00000+0  50498-3 0  9992
2 63238  97.3937  74.3900 0008391 101.8745 258.3438 15.31924070 71702
TEVEL2-8                
1 63239U 25052AF  26179.63799223  .00015126  00000+0  49234-3 0  9992
2 63239  97.3936  74.8310 0008448 101.2865 258.9326 15.31923094 71776
INNOSAT 16 (RS92S7)     
1 64878U 25155C   26179.61218014  .00005335  00000+0  21269-3 0  9997
2 64878  97.4566 146.7043 0011780 138.1245 222.0896 15.25573466 82416
GEOSCAN 6 (RS92S6)      
1 64879U 25155D   26179.62500526  .00009411  00000+0  32264-3 0  9997
2 64879  97.4557 148.2225 0009529 128.0795 232.1306 15.30359564 82518
GEOSCAN 1 (RS92S1)      
1 64880U 25155E   26179.62293197  .00010096  00000+0  33937-3 0  9991
2 64880  97.4553 148.3785 0009490 128.0961 232.1138 15.30979302 82522
239ALFEROV (RS61S)      
1 64881U 25155F   26179.57599553  .00013905  00000+0  43457-3 0  9991
2 64881  97.4553 148.9315 0009182 126.6116 233.5972 15.33239938 82553
GEOSCAN 2 (RS92S2)      
1 64890U 25155Q   26179.61460584  .00009891  00000+0  32991-3 0  9997
2 64890  97.4552 148.5272 0009062 117.1352 243.0815 15.31240830 82535
GEOSCAN 5 (RS92S5)      
1 64891U 25155R   26179.62791965  .00013148  00000+0  40714-3 0  9991
2 64891  97.4545 149.1257 0008064 129.8913 230.3039 15.33556725 82578
GEOSCAN 4 (RS92S4)      
1 64892U 25155S   26179.61094748  .00014178  00000+0  43659-3 0  9991
2 64892  97.4549 149.1603 0008101 129.6614 230.5344 15.33715350 82578
