OBJECT_NAME,OBJECT_ID,EPOCH,MEAN_MOTION,ECCENTRICITY,INCLINATION,RA_OF_ASC_NODE,ARG_OF_PERICENTER,MEAN_ANOMALY,EPHEMERIS_TYPE,CLASSIFICATION_TYPE,NORAD_CAT_ID,ELEMENT_SET_NO,REV_AT_EPOCH,BSTAR,MEAN_MOTION_DOT,MEAN_MOTION_DDOT
KUZGTU 1 (RS47S),2023-091AV,2026-06-28T14:38:54.517344,15.30116753,.00117343,97.5065,244.2077,62.3583,297.8847,0,U,57217,999,16612,.39470536E-3,.11454E-3,0
SONATE-2,2024-043Q,2026-06-28T08:52:56.500896,15.59552701,.00072582,97.5533,330.4588,159.2344,200.9208,0,U,59112,999,12963,.47805249E-3,.38011E-3,0
MESAT1,2024-125G,2026-06-28T13:27:08.081280,15.64461641,.00106859,97.2273,37.3111,164.5747,195.5841,0,U,60209,999,11134,.56370307E-3,.54405E-3,0
OOV-CUBE (TUBSAT-30),2024-128F,2026-06-28T08:48:26.031744,15.02811881,.00432378,61.9924,186.5879,136.2488,224.2043,0,U,60240,999,10779,.14068964E-3,.1714E-4,0
COLIBRI-S (RS67S),2024-199M,2026-06-28T15:11:47.653152,15.48188861,.00068239,97.2978,53.5947,224.1656,135.9051,0,U,61746,999,13918,.40557937E-3,.21288E-3,0
HORS 3 (RS81S),2024-199U,2026-06-28T14:32:26.865600,15.55759600,.00047294,97.2966,55.6794,215.6669,144.4270,0,U,61753,999,13933,.50587423E-3,.34883E-3,0
HORS 4 (RS82S),2024-199V,2026-06-28T14:17:05.690400,15.60750638,.00046893,97.2909,56.9457,200.5824,159.5245,0,U,61754,999,13942,.57271124E-3,.4771E-3,0
SIT-2086,2024-199AF,2026-06-28T14:21:05.995584,15.53867401,.00060281,97.2923,56.1084,199.2994,160.8033,0,U,61764,999,13620,.54540869E-3,.35117E-3,0
HYPERVIEW 1G (RS66S),2024-199AP,2026-06-28T14:36:27.945792,15.79182252,.00065051,97.2850,59.9302,183.5272,176.5951,0,U,61772,999,13647,.87461683E-3,.158488E-2,0
ALTAIR (RS65S),2024-199AW,2026-06-28T15:13:46.332192,15.37238958,.00107761,97.3019,48.9110,263.1455,96.8564,0,U,61779,999,13887,.29436857E-3,.10678E-3,0
ASRTU-1 (AO-123),2024-199AY,2026-06-28T13:37:10.982208,15.35833405,.00119009,97.2990,48.1363,267.0979,92.8903,0,U,61781,999,13567,.21352241E-3,.738E-4,0
SAMSAT-IONOSPHERE (RS75S),2024-199BB,2026-06-28T14:52:21.181440,15.58626936,.00068802,97.2931,55.7830,220.2642,139.8106,0,U,61784,999,13934,.5881422E-3,.4522E-3,0
RTU MIREA 1 (RS51S),2024-199BC,2026-06-28T14:49:49.017216,15.62346488,.00069686,97.2918,56.6734,212.1802,147.9032,0,U,61785,999,13625,.63673527E-3,.56512E-3,0
TEVEL2-4,2025-052D,2026-06-27T16:17:56.111424,15.34970355,.00048165,97.3898,75.0900,83.9278,276.2514,0,U,63213,999,7172,.54141956E-3,.18314E-3,0
TEVEL2-5,2025-052E,2026-06-27T23:04:42.830112,15.34803473,.0004767,97.3898,75.3176,85.2534,274.9254,0,U,63214,999,7176,.53188E-3,.17894E-3,0
TEVEL2-6,2025-052F,2026-06-28T15:01:40.548000,15.34791487,.00046052,97.3900,75.9681,84.5630,275.6138,0,U,63215,999,7186,.52165147E-3,.1754E-3,0
TEVEL2-1,2025-052H,2026-06-28T04:51:50.560128,15.34227213,.00050019,97.3869,75.1550,92.4955,267.6861,0,U,63217,999,7178,.52050731E-3,.17191E-3,0
TEVEL2-3,2025-052J,2026-06-28T12:33:06.969312,15.34297653,.00048602,97.3875,75.4987,93.1109,267.0690,0,U,63218,999,7183,.51971962E-3,.17203E-3,0
TEVEL2-2,2025-052K,2026-06-28T04:52:11.799840,15.34238334,.00050144,97.3872,75.1580,92.9616,267.2201,0,U,63219,999,7178,.52754949E-3,.17431E-3,0
OTP-2,2025-052AB,2026-06-28T12:28:52.928256,15.24129056,.0008119,97.3864,71.7811,115.9048,244.3027,0,U,63235,999,7159,.33645865E-3,.8119E-4,0
TEVEL2-9,2025-052AD,2026-06-28T15:38:36.082464,15.32242983,.00083031,97.3933,74.9572,100.5589,259.6589,0,U,63237,999,7178,.50741128E-3,.15749E-3,0
TEVEL2-7,2025-052AE,2026-06-28T04:08:14.762112,15.31924070,.0008391,97.3937,74.3900,101.8745,258.3438,0,U,63238,999,7170,.50498389E-3,.15518E-3,0
TEVEL2-8,2025-052AF,2026-06-28T15:18:42.528672,15.31923094,.00084484,97.3936,74.8310,101.2865,258.9326,0,U,63239,999,7177,.49234096E-3,.15126E-3,0
INNOSAT 16 (RS92S7),2025-155C,2026-06-28T14:41:32.364096,15.25573466,.00117802,97.4566,146.7043,138.1245,222.0896,0,U,64878,999,8241,.21268957E-3,.5335E-4,0
GEOSCAN 6 (RS92S6),2025-155D,2026-06-28T15:00:00.454464,15.30359564,.00095293,97.4557,148.2225,128.0795,232.1306,0,U,64879,999,8251,.32264289E-3,.9411E-4,0
GEOSCAN 1 (RS92S1),2025-155E,2026-06-28T14:57:01.322208,15.30979302,.00094905,97.4553,148.3785,128.0961,232.1138,0,U,64880,999,8252,.33937033E-3,.10096E-3,0
239ALFEROV (RS61S),2025-155F,2026-06-28T13:49:26.013792,15.33239938,.0009182,97.4553,148.9315,126.6116,233.5972,0,U,64881,999,8255,.43456537E-3,.13905E-3,0
GEOSCAN 2 (RS92S2),2025-155Q,2026-06-28T14:45:01.944576,15.31240830,.00090624,97.4552,148.5272,117.1352,243.0815,0,U,64890,999,8253,.32991002E-3,.9891E-4,0
GEOSCAN 5 (RS92S5),2025-155R,2026-06-28T15:04:12.257760,15.33556725,.0008064,97.4545,149.1257,129.8913,230.3039,0,U,64891,999,8257,.4071446E-3,.13148E-3,0
GEOSCAN 4 (RS92S4),2025-155S,2026-06-28T14:39:45.862272,15.33715350,.00081011,97.4549,149.1603,129.6614,230.5344,0,U,64892,999,8257,.43659342E-3,.14178E-3,0
